{
  "links" : {
    "next" : "https://api.nasa.gov/neo/rest/v1/feed?start_date=2002-03-09&end_date=2002-03-09&detailed=true&api_key=t0TVs3DtDT2H8Oy2Zy8m2eVrNsAVKAexjcZXUckd",
    "prev" : "https://api.nasa.gov/neo/rest/v1/feed?start_date=2002-03-07&end_date=2002-03-07&detailed=true&api_key=t0TVs3DtDT2H8Oy2Zy8m2eVrNsAVKAexjcZXUckd",
    "self" : "https://api.nasa.gov/neo/rest/v1/feed?start_date=2002-03-08&end_date=2002-03-08&detailed=true&api_key=t0TVs3DtDT2H8Oy2Zy8m2eVrNsAVKAexjcZXUckd"
  },
  "element_count" : 7,
  "near_earth_objects" : {
    "2002-03-08" : [ {
      "links" : {
        "self" : "https://api.nasa.gov/neo/rest/v1/neo/3117446?api_key=t0TVs3DtDT2H8Oy2Zy8m2eVrNsAVKAexjcZXUckd"
      },
      "neo_reference_id" : "3117446",
      "name" : "(2002 FW1)",
      "nasa_jpl_url" : "http://ssd.jpl.nasa.gov/sbdb.cgi?sstr=3117446",
      "absolute_magnitude_h" : 24.0,
      "estimated_diameter" : {
        "kilometers" : {
          "estimated_diameter_min" : 0.0421264611,
          "estimated_diameter_max" : 0.0941976306
        },
        "meters" : {
          "estimated_diameter_min" : 42.1264610556,
          "estimated_diameter_max" : 94.1976305719
        },
        "miles" : {
          "estimated_diameter_min" : 0.0261761612,
          "estimated_diameter_max" : 0.0585316759
        },
        "feet" : {
          "estimated_diameter_min" : 138.2101784897,
          "estimated_diameter_max" : 309.0473542854
        }
      },
      "is_potentially_hazardous_asteroid" : false,
      "close_approach_data" : [ {
        "close_approach_date" : "2002-03-08",
        "epoch_date_close_approach" : 1015574400000,
        "relative_velocity" : {
          "kilometers_per_second" : "9.1810557682",
          "kilometers_per_hour" : "33051.8007655715",
          "miles_per_hour" : "20537.1036479186"
        },
        "miss_distance" : {
          "astronomical" : "0.0122559603",
          "lunar" : "4.7675685883",
          "kilometers" : "1833465.5",
          "miles" : "1139262.625"
        },
        "orbiting_body" : "Earth"
      } ],
      "orbital_data" : {
        "orbit_id" : "8",
        "orbit_determination_date" : "2017-04-06 09:15:19",
        "orbit_uncertainty" : "8",
        "minimum_orbit_intersection" : ".00849026",
        "jupiter_tisserand_invariant" : "7.057",
        "epoch_osculation" : "2452358.5",
        "eccentricity" : ".3420395941822435",
        "semi_major_axis" : ".8240252786422374",
        "inclination" : "6.628118117921677",
        "ascending_node_longitude" : "164.2963041743963",
        "orbital_period" : "273.2179503692442",
        "perihelion_distance" : ".5421760067395364",
        "perihelion_argument" : "223.2220307604914",
        "aphelion_distance" : "1.105874550544939",
        "perihelion_time" : "2452259.501451589731",
        "mean_anomaly" : "130.4433964881567",
        "mean_motion" : "1.317629385307492",
        "equinox" : "J2000"
      }
    }, {
      "links" : {
        "self" : "https://api.nasa.gov/neo/rest/v1/neo/3645650?api_key=t0TVs3DtDT2H8Oy2Zy8m2eVrNsAVKAexjcZXUckd"
      },
      "neo_reference_id" : "3645650",
      "name" : "(2013 PZ38)",
      "nasa_jpl_url" : "http://ssd.jpl.nasa.gov/sbdb.cgi?sstr=3645650",
      "absolute_magnitude_h" : 24.0,
      "estimated_diameter" : {
        "kilometers" : {
          "estimated_diameter_min" : 0.0421264611,
          "estimated_diameter_max" : 0.0941976306
        },
        "meters" : {
          "estimated_diameter_min" : 42.1264610556,
          "estimated_diameter_max" : 94.1976305719
        },
        "miles" : {
          "estimated_diameter_min" : 0.0261761612,
          "estimated_diameter_max" : 0.0585316759
        },
        "feet" : {
          "estimated_diameter_min" : 138.2101784897,
          "estimated_diameter_max" : 309.0473542854
        }
      },
      "is_potentially_hazardous_asteroid" : false,
      "close_approach_data" : [ {
        "close_approach_date" : "2002-03-08",
        "epoch_date_close_approach" : 1015574400000,
        "relative_velocity" : {
          "kilometers_per_second" : "6.9594903259",
          "kilometers_per_hour" : "25054.1651731318",
          "miles_per_hour" : "15567.6839099385"
        },
        "miss_distance" : {
          "astronomical" : "0.3497708111",
          "lunar" : "136.0608520508",
          "kilometers" : "52324968",
          "miles" : "32513228"
        },
        "orbiting_body" : "Earth"
      } ],
      "orbital_data" : {
        "orbit_id" : "12",
        "orbit_determination_date" : "2017-04-06 08:45:08",
        "orbit_uncertainty" : "6",
        "minimum_orbit_intersection" : ".0951041",
        "jupiter_tisserand_invariant" : "5.193",
        "epoch_osculation" : "2458000.5",
        "eccentricity" : ".09646506673921017",
        "semi_major_axis" : "1.226650338522575",
        "inclination" : "10.21647757530511",
        "ascending_node_longitude" : "320.4758377431419",
        "orbital_period" : "496.2260980467263",
        "perihelion_distance" : "1.10832143175132",
        "perihelion_argument" : ".006917624573690205",
        "aphelion_distance" : "1.34497924529383",
        "perihelion_time" : "2458004.911354479767",
        "mean_anomaly" : "356.7996693060541",
        "mean_motion" : ".7254757486900683",
        "equinox" : "J2000"
      }
    }, {
      "links" : {
        "self" : "https://api.nasa.gov/neo/rest/v1/neo/3729843?api_key=t0TVs3DtDT2H8Oy2Zy8m2eVrNsAVKAexjcZXUckd"
      },
      "neo_reference_id" : "3729843",
      "name" : "(2015 TD145)",
      "nasa_jpl_url" : "http://ssd.jpl.nasa.gov/sbdb.cgi?sstr=3729843",
      "absolute_magnitude_h" : 22.2,
      "estimated_diameter" : {
        "kilometers" : {
          "estimated_diameter_min" : 0.096506147,
          "estimated_diameter_max" : 0.2157943048
        },
        "meters" : {
          "estimated_diameter_min" : 96.5061469579,
          "estimated_diameter_max" : 215.7943048444
        },
        "miles" : {
          "estimated_diameter_min" : 0.059966121,
          "estimated_diameter_max" : 0.134088323
        },
        "feet" : {
          "estimated_diameter_min" : 316.6212271853,
          "estimated_diameter_max" : 707.9865871058
        }
      },
      "is_potentially_hazardous_asteroid" : false,
      "close_approach_data" : [ {
        "close_approach_date" : "2002-03-08",
        "epoch_date_close_approach" : 1015574400000,
        "relative_velocity" : {
          "kilometers_per_second" : "22.1957154506",
          "kilometers_per_hour" : "79904.5756220567",
          "miles_per_hour" : "49649.5958913829"
        },
        "miss_distance" : {
          "astronomical" : "0.2915941967",
          "lunar" : "113.4301452637",
          "kilometers" : "43621872",
          "miles" : "27105376"
        },
        "orbiting_body" : "Earth"
      } ],
      "orbital_data" : {
        "orbit_id" : "8",
        "orbit_determination_date" : "2017-04-06 08:31:25",
        "orbit_uncertainty" : "5",
        "minimum_orbit_intersection" : ".0640711",
        "jupiter_tisserand_invariant" : "3.626",
        "epoch_osculation" : "2458000.5",
        "eccentricity" : ".589714489330877",
        "semi_major_axis" : "1.973928902262559",
        "inclination" : "5.716347666475077",
        "ascending_node_longitude" : "286.0442726814936",
        "orbital_period" : "1012.967906338076",
        "perihelion_distance" : ".8098744276893355",
        "perihelion_argument" : "163.2511099935979",
        "aphelion_distance" : "3.137983376835783",
        "perihelion_time" : "2458376.429053788280",
        "mean_anomaly" : "226.3980778492569",
        "mean_motion" : ".3553913186661717",
        "equinox" : "J2000"
      }
    } ]
  }
}